{"type": "FeatureCollection", "features": [ {"type": "Feature", "properties": {"norad_id": 34117, "name": "COSMOS 2251 DEB", "group": "cosmos-2251-debris", "lat": 72.88070366880888, "lon": 36.97271160047582, "alt_km": 721.3887583277465, "timestamp": "2025-12-20T22:39:11.018773+00:00", "meta": {"OBJECT_NAME": "COSMOS 2251 DEB", "OBJECT_ID": "1993-036KN", "EPOCH": "2025-12-20T08:55:52.413888", "MEAN_MOTION": 14.40039498, "ECCENTRICITY": 0.00548478, "INCLINATION": 74.0395, "RA_OF_ASC_NODE": 329.7266, "ARG_OF_PERICENTER": 43.9351, "MEAN_ANOMALY": 316.6145, "EPHEMERIS_TYPE": 0, "CLASSIFICATION_TYPE": "U", "NORAD_CAT_ID": 34117, "ELEMENT_SET_NO": 999, "REV_AT_EPOCH": 88233, "BSTAR": 0.00048420631, "MEAN_MOTION_DOT": 1.527e-05, "MEAN_MOTION_DDOT": 0}, "tle": {"line1": "1 34117U 93036KN  25354.37213442  .00001527  00000+0  48421-3 0  9998", "line2": "2 34117  74.0395 329.7266 0054847  43.9351 316.6145 14.40039498882336"}}, "geometry": {"type": "Point", "coordinates": [36.97271160047582, 72.88070366880888]}}, {"type": "Feature", "properties": {"norad_id": 34118, "name": "COSMOS 2251 DEB", "group": "cosmos-2251-debris", "lat": -48.40968476344219, "lon": -146.22608821367646, "alt_km": 606.7739833663018, "timestamp": "2025-12-20T22:39:11.018782+00:00", "meta": {"OBJECT_NAME": "COSMOS 2251 DEB", "OBJECT_ID": "1993-036KP", "EPOCH": "2025-12-20T08:56:41.369856", "MEAN_MOTION": 14.94184152, "ECCENTRICITY": 0.00601121, "INCLINATION": 73.9518, "RA_OF_ASC_NODE": 233.8545, "ARG_OF_PERICENTER": 62.1747, "MEAN_ANOMALY": 56.3304, "EPHEMERIS_TYPE": 0, "CLASSIFICATION_TYPE": "U", "NORAD_CAT_ID": 34118, "ELEMENT_SET_NO": 999, "REV_AT_EPOCH": 89290, "BSTAR": 0.00094564831, "MEAN_MOTION_DOT": 0.00010474, "MEAN_MOTION_DDOT": 0}, "tle": {"line1": "1 34118U 93036KP  25354.37270104  .00010474  00000+0  94565-3 0  9998", "line2": "2 34118  73.9518 233.8545 0060112  62.1747  56.3304 14.94184152892907"}}, "geometry": {"type": "Point", "coordinates": [-146.22608821367646, -48.40968476344219]}}, {"type": "Feature", "properties": {"norad_id": 34120, "name": "COSMOS 2251 DEB", "group": "cosmos-2251-debris", "lat": 59.67370298656988, "lon": -128.59625977154525, "alt_km": 784.125195906332, "timestamp": "2025-12-20T22:39:11.018791+00:00", "meta": {"OBJECT_NAME": "COSMOS 2251 DEB", "OBJECT_ID": "1993-036KR", "EPOCH": "2025-12-20T07:43:42.007872", "MEAN_MOTION": 13.98691849, "ECCENTRICITY": 0.0182289, "INCLINATION": 73.9904, "RA_OF_ASC_NODE": 203.0871, "ARG_OF_PERICENTER": 29.0876, "MEAN_ANOMALY": 143.5907, "EPHEMERIS_TYPE": 0, "CLASSIFICATION_TYPE": "U", "NORAD_CAT_ID": 34120, "ELEMENT_SET_NO": 999, "REV_AT_EPOCH": 86086, "BSTAR": 0.00024819547, "MEAN_MOTION_DOT": 3.87e-06, "MEAN_MOTION_DDOT": 0}, "tle": {"line1": "1 34120U 93036KR  25354.32201398  .00000387  00000+0  24820-3 0  9994", "line2": "2 34120  73.9904 203.0871 0182289  29.0876 143.5907 13.98691849860862"}}, "geometry": {"type": "Point", "coordinates": [-128.59625977154525, 59.67370298656988]}}, {"type": "Feature", "properties": {"norad_id": 34121, "name": "COSMOS 2251 DEB", "group": "cosmos-2251-debris", "lat": 69.90956078758875, "lon": 134.81832600526178, "alt_km": 1067.2150190876318, "timestamp": "2025-12-20T22:39:11.018800+00:00", "meta": {"OBJECT_NAME": "COSMOS 2251 DEB", "OBJECT_ID": "1993-036KS", "EPOCH": "2025-12-20T14:11:01.376160", "MEAN_MOTION": 13.91955466, "ECCENTRICITY": 0.02407641, "INCLINATION": 73.9924, "RA_OF_ASC_NODE": 83.7157, "ARG_OF_PERICENTER": 287.5172, "MEAN_ANOMALY": 181.1881, "EPHEMERIS_TYPE": 0, "CLASSIFICATION_TYPE": "U", "NORAD_CAT_ID": 34121, "ELEMENT_SET_NO": 999, "REV_AT_EPOCH": 85234, "BSTAR": 0.00086705788, "MEAN_MOTION_DOT": 1.376e-05, "MEAN_MOTION_DDOT": 0}, "tle": {"line1": "1 34121U 93036KS  25354.59098815  .00001376  00000+0  86706-3 0  9992", "line2": "2 34121  73.9924  83.7157 0240764 287.5172 181.1881 13.91955466852342"}}, "geometry": {"type": "Point", "coordinates": [134.81832600526178, 69.90956078758875]}}, {"type": "Feature", "properties": {"norad_id": 34122, "name": "COSMOS 2251 DEB", "group": "cosmos-2251-debris", "lat": -33.88810496441118, "lon": 91.76504180036693, "alt_km": 632.0757390714398, "timestamp": "2025-12-20T22:39:11.018809+00:00", "meta": {"OBJECT_NAME": "COSMOS 2251 DEB", "OBJECT_ID": "1993-036KT", "EPOCH": "2025-12-19T17:59:46.157856", "MEAN_MOTION": 14.65126194, "ECCENTRICITY": 0.0084721, "INCLINATION": 74.0362, "RA_OF_ASC_NODE": 105.1466, "ARG_OF_PERICENTER": 0.0124, "MEAN_ANOMALY": 149.8471, "EPHEMERIS_TYPE": 0, "CLASSIFICATION_TYPE": "U", "NORAD_CAT_ID": 34122, "ELEMENT_SET_NO": 999, "REV_AT_EPOCH": 88787, "BSTAR": 0.00069383656, "MEAN_MOTION_DOT": 3.9e-05, "MEAN_MOTION_DDOT": 0}, "tle": {"line1": "1 34122U 93036KT  25353.74983979  .00003900  00000+0  69384-3 0  9991", "line2": "2 34122  74.0362 105.1466 0084721   0.0124 149.8471 14.65126194887879"}}, "geometry": {"type": "Point", "coordinates": [91.76504180036693, -33.88810496441118]}}, {"type": "Feature", "properties": {"norad_id": 34127, "name": "COSMOS 2251 DEB", "group": "cosmos-2251-debris", "lat": -30.56780468030343, "lon": 19.39552426009535, "alt_km": 806.4876262570824, "timestamp": "2025-12-20T22:39:11.018818+00:00", "meta": {"OBJECT_NAME": "COSMOS 2251 DEB", "OBJECT_ID": "1993-036KY", "EPOCH": "2025-12-20T13:19:41.195424", "MEAN_MOTION": 14.31609842, "ECCENTRICITY": 0.01148833, "INCLINATION": 74.1792, "RA_OF_ASC_NODE": 29.7384, "ARG_OF_PERICENTER": 228.199, "MEAN_ANOMALY": 257.0528, "EPHEMERIS_TYPE": 0, "CLASSIFICATION_TYPE": "U", "NORAD_CAT_ID": 34127, "ELEMENT_SET_NO": 999, "REV_AT_EPOCH": 86883, "BSTAR": 0.00099922303, "MEAN_MOTION_DOT": 2.836e-05, "MEAN_MOTION_DDOT": 0}, "tle": {"line1": "1 34127U 93036KY  25354.55533791  .00002836  00000+0  99922-3 0  9997", "line2": "2 34127  74.1792  29.7384 0114883 228.1990 257.0528 14.31609842868838"}}, "geometry": {"type": "Point", "coordinates": [19.39552426009535, -30.56780468030343]}}, {"type": "Feature", "properties": {"norad_id": 34128, "name": "COSMOS 2251 DEB", "group": "cosmos-2251-debris", "lat": 65.40476271300005, "lon": -41.20115775967607, "alt_km": 541.9747709700978, "timestamp": "2025-12-20T22:39:11.018827+00:00", "meta": {"OBJECT_NAME": "COSMOS 2251 DEB", "OBJECT_ID": "1993-036KZ", "EPOCH": "2025-12-20T01:36:15.547968", "MEAN_MOTION": 15.01428309, "ECCENTRICITY": 0.00260273, "INCLINATION": 73.9993, "RA_OF_ASC_NODE": 281.7665, "ARG_OF_PERICENTER": 32.4281, "MEAN_ANOMALY": 339.9968, "EPHEMERIS_TYPE": 0, "CLASSIFICATION_TYPE": "U", "NORAD_CAT_ID": 34128, "ELEMENT_SET_NO": 999, "REV_AT_EPOCH": 89277, "BSTAR": 0.00099436243, "MEAN_MOTION_DOT": 0.00012915, "MEAN_MOTION_DDOT": 0}, "tle": {"line1": "1 34128U 93036KZ  25354.06684662  .00012915  00000+0  99436-3 0  9997", "line2": "2 34128  73.9993 281.7665 0026027  32.4281 339.9968 15.01428309892775"}}, "geometry": {"type": "Point", "coordinates": [-41.20115775967607, 65.40476271300005]}}, {"type": "Feature", "properties": {"norad_id": 34129, "name": "COSMOS 2251 DEB", "group": "cosmos-2251-debris", "lat": -43.03221700801396, "lon": -52.03012081183206, "alt_km": 647.6302809720237, "timestamp": "2025-12-20T22:39:11.018836+00:00", "meta": {"OBJECT_NAME": "COSMOS 2251 DEB", "OBJECT_ID": "1993-036LA", "EPOCH": "2025-12-20T06:35:18.877056", "MEAN_MOTION": 14.75860485, "ECCENTRICITY": 0.00332842, "INCLINATION": 74.0352, "RA_OF_ASC_NODE": 324.7802, "ARG_OF_PERICENTER": 43.9199, "MEAN_ANOMALY": 316.4612, "EPHEMERIS_TYPE": 0, "CLASSIFICATION_TYPE": "U", "NORAD_CAT_ID": 34129, "ELEMENT_SET_NO": 999, "REV_AT_EPOCH": 61409, "BSTAR": 0.00098354282, "MEAN_MOTION_DOT": 6.785e-05, "MEAN_MOTION_DDOT": 0}, "tle": {"line1": "1 34129U 93036LA  25354.27452404  .00006785  00000+0  98354-3 0  9994", "line2": "2 34129  74.0352 324.7802 0033284  43.9199 316.4612 14.75860485614094"}}, "geometry": {"type": "Point", "coordinates": [-52.03012081183206, -43.03221700801396]}}, {"type": "Feature", "properties": {"norad_id": 34136, "name": "COSMOS 2251 DEB", "group": "cosmos-2251-debris", "lat": -54.31404799902633, "lon": -130.03221982523473, "alt_km": 635.4923594361007, "timestamp": "2025-12-20T22:39:11.018845+00:00", "meta": {"OBJECT_NAME": "COSMOS 2251 DEB", "OBJECT_ID": "1993-036LH", "EPOCH": "2025-12-20T12:22:24.199104", "MEAN_MOTION": 14.80126204, "ECCENTRICITY": 0.00852441, "INCLINATION": 74.0199, "RA_OF_ASC_NODE": 27.2965, "ARG_OF_PERICENTER": 148.1567, "MEAN_ANOMALY": 327.1329, "EPHEMERIS_TYPE": 0, "CLASSIFICATION_TYPE": "U", "NORAD_CAT_ID": 34136, "ELEMENT_SET_NO": 999, "REV_AT_EPOCH": 90125, "BSTAR": 0.00024727996, "MEAN_MOTION_DOT": 1.959e-05, "MEAN_MOTION_DDOT": 0}, "tle": {"line1": "1 34136U 93036LH  25354.51555786  .00001959  00000+0  24728-3 0  9998", "line2": "2 34136  74.0199  27.2965 0085244 148.1567 327.1329 14.80126204901257"}}, "geometry": {"type": "Point", "coordinates": [-130.03221982523473, -54.31404799902633]}}, {"type": "Feature", "properties": {"norad_id": 34139, "name": "COSMOS 2251 DEB", "group": "cosmos-2251-debris", "lat": 55.39631971322943, "lon": -97.05272832354, "alt_km": 700.8436542466725, "timestamp": "2025-12-20T22:39:11.018854+00:00", "meta": {"OBJECT_NAME": "COSMOS 2251 DEB", "OBJECT_ID": "1993-036LL", "EPOCH": "2025-12-20T03:22:42.008736", "MEAN_MOTION": 14.59153127, "ECCENTRICITY": 0.00425167, "INCLINATION": 74.0304, "RA_OF_ASC_NODE": 239.9554, "ARG_OF_PERICENTER": 309.8586, "MEAN_ANOMALY": 211.6382, "EPHEMERIS_TYPE": 0, "CLASSIFICATION_TYPE": "U", "NORAD_CAT_ID": 34139, "ELEMENT_SET_NO": 999, "REV_AT_EPOCH": 88257, "BSTAR": 0.00082666383, "MEAN_MOTION_DOT": 3.915e-05, "MEAN_MOTION_DDOT": 0}, "tle": {"line1": "1 34139U 93036LL  25354.14076399  .00003915  00000+0  82666-3 0  9997", "line2": "2 34139  74.0304 239.9554 0042516 309.8586 211.6382 14.59153127882575"}}, "geometry": {"type": "Point", "coordinates": [-97.05272832354, 55.39631971322943]}}]}